{"type": "FeatureCollection", "features": [ {"type": "Feature", "properties": {"norad_id": 54234, "name": "NOAA 21 (JPSS-2)", "group": "weather", "lat": -12.209806421220819, "lon": -77.338870016618, "alt_km": 830.3461379728978, "timestamp": "2025-12-10T09:57:44.348038+00:00", "meta": {"OBJECT_NAME": "NOAA 21 (JPSS-2)", "OBJECT_ID": "2022-150A", "EPOCH": "2025-12-09T22:10:43.470336", "MEAN_MOTION": 14.19522973, "ECCENTRICITY": 0.0002324, "INCLINATION": 98.7458, "RA_OF_ASC_NODE": 280.2675, "ARG_OF_PERICENTER": 43.4458, "MEAN_ANOMALY": 316.69, "EPHEMERIS_TYPE": 0, "CLASSIFICATION_TYPE": "U", "NORAD_CAT_ID": 54234, "ELEMENT_SET_NO": 999, "REV_AT_EPOCH": 15969, "BSTAR": 0.00010627, "MEAN_MOTION_DOT": 1.8e-06, "MEAN_MOTION_DDOT": 0}, "tle": {"line1": "1 54234U 22150A   25343.92411424  .00000180  00000+0  10627-3 0  9999", "line2": "2 54234  98.7458 280.2675 0002324  43.4458 316.6900 14.19522973159698"}}, "geometry": {"type": "Point", "coordinates": [-77.338870016618, -12.209806421220819]}}, {"type": "Feature", "properties": {"norad_id": 54743, "name": "METEOSAT-12 (MTG-I1)", "group": "weather", "lat": -0.23507974967669393, "lon": -131.3907676953993, "alt_km": 35779.78586986609, "timestamp": "2025-12-10T09:57:44.348051+00:00", "meta": {"OBJECT_NAME": "METEOSAT-12 (MTG-I1)", "OBJECT_ID": "2022-170C", "EPOCH": "2025-12-09T23:46:38.709120", "MEAN_MOTION": 1.00275392, "ECCENTRICITY": 0.0001408, "INCLINATION": 0.7277, "RA_OF_ASC_NODE": 31.2079, "ARG_OF_PERICENTER": 224.6279, "MEAN_ANOMALY": 179.5873, "EPHEMERIS_TYPE": 0, "CLASSIFICATION_TYPE": "U", "NORAD_CAT_ID": 54743, "ELEMENT_SET_NO": 999, "REV_AT_EPOCH": 1108, "BSTAR": 0, "MEAN_MOTION_DOT": -3e-08, "MEAN_MOTION_DDOT": 0}, "tle": {"line1": "1 54743U 22170C   25343.99072580 -.00000003  00000+0  00000+0 0  9994", "line2": "2 54743   0.7277  31.2079 0001408 224.6279 179.5873  1.00275392 11084"}}, "geometry": {"type": "Point", "coordinates": [-131.3907676953993, -0.23507974967669393]}}, {"type": "Feature", "properties": {"norad_id": 55973, "name": "TIANMU-1 03", "group": "weather", "lat": -20.31321095613082, "lon": 149.8013932439505, "alt_km": 448.88307267331675, "timestamp": "2025-12-10T09:57:44.348062+00:00", "meta": {"OBJECT_NAME": "TIANMU-1 03", "OBJECT_ID": "2023-039A", "EPOCH": "2025-12-09T18:27:52.644384", "MEAN_MOTION": 15.40785853, "ECCENTRICITY": 0.00045, "INCLINATION": 97.5112, "RA_OF_ASC_NODE": 146.3383, "ARG_OF_PERICENTER": 69.2402, "MEAN_ANOMALY": 290.9326, "EPHEMERIS_TYPE": 0, "CLASSIFICATION_TYPE": "U", "NORAD_CAT_ID": 55973, "ELEMENT_SET_NO": 999, "REV_AT_EPOCH": 15160, "BSTAR": 0.0005293, "MEAN_MOTION_DOT": 0.00021625, "MEAN_MOTION_DDOT": 0}, "tle": {"line1": "1 55973U 23039A   25343.76935931  .00021625  00000+0  52930-3 0  9993", "line2": "2 55973  97.5112 146.3383 0004500  69.2402 290.9326 15.40785853151606"}}, "geometry": {"type": "Point", "coordinates": [149.8013932439505, -20.31321095613082]}}, {"type": "Feature", "properties": {"norad_id": 55974, "name": "TIANMU-1 04", "group": "weather", "lat": 82.44094817676148, "lon": 49.60330669263873, "alt_km": 432.1318072318254, "timestamp": "2025-12-10T09:57:44.348073+00:00", "meta": {"OBJECT_NAME": "TIANMU-1 04", "OBJECT_ID": "2023-039B", "EPOCH": "2025-12-09T21:06:12.523968", "MEAN_MOTION": 15.41125771, "ECCENTRICITY": 0.0005183, "INCLINATION": 97.5044, "RA_OF_ASC_NODE": 145.6435, "ARG_OF_PERICENTER": 64.4878, "MEAN_ANOMALY": 295.6904, "EPHEMERIS_TYPE": 0, "CLASSIFICATION_TYPE": "U", "NORAD_CAT_ID": 55974, "ELEMENT_SET_NO": 999, "REV_AT_EPOCH": 15162, "BSTAR": 0.00054722, "MEAN_MOTION_DOT": 0.00022618, "MEAN_MOTION_DDOT": 0}, "tle": {"line1": "1 55974U 23039B   25343.87931162  .00022618  00000+0  54722-3 0  9992", "line2": "2 55974  97.5044 145.6435 0005183  64.4878 295.6904 15.41125771151627"}}, "geometry": {"type": "Point", "coordinates": [49.60330669263873, 82.44094817676148]}}, {"type": "Feature", "properties": {"norad_id": 55975, "name": "TIANMU-1 05", "group": "weather", "lat": 53.33342684503631, "lon": -23.10817030172971, "alt_km": 436.6600857049607, "timestamp": "2025-12-10T09:57:44.348083+00:00", "meta": {"OBJECT_NAME": "TIANMU-1 05", "OBJECT_ID": "2023-039C", "EPOCH": "2025-12-09T19:23:23.400672", "MEAN_MOTION": 15.40746227, "ECCENTRICITY": 0.0004372, "INCLINATION": 97.5091, "RA_OF_ASC_NODE": 146.0624, "ARG_OF_PERICENTER": 85.7688, "MEAN_ANOMALY": 274.4057, "EPHEMERIS_TYPE": 0, "CLASSIFICATION_TYPE": "U", "NORAD_CAT_ID": 55975, "ELEMENT_SET_NO": 999, "REV_AT_EPOCH": 15159, "BSTAR": 0.00054774, "MEAN_MOTION_DOT": 0.00022354, "MEAN_MOTION_DDOT": 0}, "tle": {"line1": "1 55975U 23039C   25343.80790973  .00022354  00000+0  54774-3 0  9993", "line2": "2 55975  97.5091 146.0624 0004372  85.7688 274.4057 15.40746227151593"}}, "geometry": {"type": "Point", "coordinates": [-23.10817030172971, 53.33342684503631]}}, {"type": "Feature", "properties": {"norad_id": 55976, "name": "TIANMU-1 06", "group": "weather", "lat": 76.1369672731291, "lon": 114.83481774618782, "alt_km": 432.1597380028834, "timestamp": "2025-12-10T09:57:44.348094+00:00", "meta": {"OBJECT_NAME": "TIANMU-1 06", "OBJECT_ID": "2023-039D", "EPOCH": "2025-12-09T21:09:28.785888", "MEAN_MOTION": 15.4117804, "ECCENTRICITY": 0.0004711, "INCLINATION": 97.5101, "RA_OF_ASC_NODE": 146.6008, "ARG_OF_PERICENTER": 81.2484, "MEAN_ANOMALY": 278.9296, "EPHEMERIS_TYPE": 0, "CLASSIFICATION_TYPE": "U", "NORAD_CAT_ID": 55976, "ELEMENT_SET_NO": 999, "REV_AT_EPOCH": 15162, "BSTAR": 0.00054222, "MEAN_MOTION_DOT": 0.00022447, "MEAN_MOTION_DDOT": 0}, "tle": {"line1": "1 55976U 23039D   25343.88158317  .00022447  00000+0  54222-3 0  9993", "line2": "2 55976  97.5101 146.6008 0004711  81.2484 278.9296 15.41178040151621"}}, "geometry": {"type": "Point", "coordinates": [114.83481774618782, 76.1369672731291]}}, {"type": "Feature", "properties": {"norad_id": 56232, "name": "FENGYUN 3G", "group": "weather", "lat": 26.854563794732407, "lon": -95.38390701611694, "alt_km": 404.4653768057251, "timestamp": "2025-12-10T09:57:44.348106+00:00", "meta": {"OBJECT_NAME": "FENGYUN 3G", "OBJECT_ID": "2023-055A", "EPOCH": "2025-12-09T19:54:46.304640", "MEAN_MOTION": 15.53371996, "ECCENTRICITY": 0.0009301, "INCLINATION": 49.9932, "RA_OF_ASC_NODE": 242.4697, "ARG_OF_PERICENTER": 134.6935, "MEAN_ANOMALY": 225.4791, "EPHEMERIS_TYPE": 0, "CLASSIFICATION_TYPE": "U", "NORAD_CAT_ID": 56232, "ELEMENT_SET_NO": 999, "REV_AT_EPOCH": 15057, "BSTAR": 0.00064589, "MEAN_MOTION_DOT": 0.00041469, "MEAN_MOTION_DDOT": 0}, "tle": {"line1": "1 56232U 23055A   25343.82970260  .00041469  00000+0  64589-3 0  9992", "line2": "2 56232  49.9932 242.4697 0009301 134.6935 225.4791 15.53371996150571"}}, "geometry": {"type": "Point", "coordinates": [-95.38390701611694, 26.854563794732407]}}, {"type": "Feature", "properties": {"norad_id": 57166, "name": "METEOR-M2 3", "group": "weather", "lat": -36.34898518308839, "lon": -148.42790283705125, "alt_km": 820.76782248573, "timestamp": "2025-12-10T09:57:44.348117+00:00", "meta": {"OBJECT_NAME": "METEOR-M2 3", "OBJECT_ID": "2023-091A", "EPOCH": "2025-12-10T03:53:19.183776", "MEAN_MOTION": 14.24025665, "ECCENTRICITY": 0.0004055, "INCLINATION": 98.6381, "RA_OF_ASC_NODE": 37.7463, "ARG_OF_PERICENTER": 16.0228, "MEAN_ANOMALY": 344.1078, "EPHEMERIS_TYPE": 0, "CLASSIFICATION_TYPE": "U", "NORAD_CAT_ID": 57166, "ELEMENT_SET_NO": 999, "REV_AT_EPOCH": 12761, "BSTAR": 4.0525e-05, "MEAN_MOTION_DOT": 5e-07, "MEAN_MOTION_DDOT": 0}, "tle": {"line1": "1 57166U 23091A   25344.16202759  .00000050  00000+0  40525-4 0  9994", "line2": "2 57166  98.6381  37.7463 0004055  16.0228 344.1078 14.24025665127614"}}, "geometry": {"type": "Point", "coordinates": [-148.42790283705125, -36.34898518308839]}}, {"type": "Feature", "properties": {"norad_id": 57399, "name": "TIANMU-1 07", "group": "weather", "lat": -73.19854226138513, "lon": -170.7609243606012, "alt_km": 492.8563360486114, "timestamp": "2025-12-10T09:57:44.348127+00:00", "meta": {"OBJECT_NAME": "TIANMU-1 07", "OBJECT_ID": "2023-101A", "EPOCH": "2025-12-09T20:16:38.629056", "MEAN_MOTION": 15.28005317, "ECCENTRICITY": 0.0005641, "INCLINATION": 97.2877, "RA_OF_ASC_NODE": 33.7583, "ARG_OF_PERICENTER": 88.7609, "MEAN_ANOMALY": 271.4277, "EPHEMERIS_TYPE": 0, "CLASSIFICATION_TYPE": "U", "NORAD_CAT_ID": 57399, "ELEMENT_SET_NO": 999, "REV_AT_EPOCH": 13271, "BSTAR": 0.00042294, "MEAN_MOTION_DOT": 0.00011493, "MEAN_MOTION_DDOT": 0}, "tle": {"line1": "1 57399U 23101A   25343.84489154  .00011493  00000+0  42294-3 0  9991", "line2": "2 57399  97.2877  33.7583 0005641  88.7609 271.4277 15.28005317132714"}}, "geometry": {"type": "Point", "coordinates": [-170.7609243606012, -73.19854226138513]}}, {"type": "Feature", "properties": {"norad_id": 57400, "name": "TIANMU-1 08", "group": "weather", "lat": 74.7746374393324, "lon": 6.071999727521015, "alt_km": 469.6337694605718, "timestamp": "2025-12-10T09:57:44.348137+00:00", "meta": {"OBJECT_NAME": "TIANMU-1 08", "OBJECT_ID": "2023-101B", "EPOCH": "2025-12-09T21:03:18.141120", "MEAN_MOTION": 15.27990194, "ECCENTRICITY": 0.0007562, "INCLINATION": 97.2865, "RA_OF_ASC_NODE": 33.5885, "ARG_OF_PERICENTER": 91.7486, "MEAN_ANOMALY": 268.462, "EPHEMERIS_TYPE": 0, "CLASSIFICATION_TYPE": "U", "NORAD_CAT_ID": 57400, "ELEMENT_SET_NO": 999, "REV_AT_EPOCH": 13271, "BSTAR": 0.00042432, "MEAN_MOTION_DOT": 0.0001153, "MEAN_MOTION_DDOT": 0}, "tle": {"line1": "1 57400U 23101B   25343.87729330  .00011530  00000+0  42432-3 0  9996", "line2": "2 57400  97.2865  33.5885 0007562  91.7486 268.4620 15.27990194132711"}}, "geometry": {"type": "Point", "coordinates": [6.071999727521015, 74.7746374393324]}}]}